OBJECT_NAME,OBJECT_ID,OBJECT_TYPE,ACTIVE,COUNTRY,LAUNCH,EPOCH,MEAN_MOTION,ECCENTRICITY,INCLINATION,RA_OF_ASC_NODE,ARG_OF_PERICENTER,MEAN_ANOMALY,EPHEMERIS_TYPE,CLASSIFICATION_TYPE,NORAD_CAT_ID,ELEMENT_SET_NO,REV_AT_EPOCH,BSTAR,MEAN_MOTION_DOT,MEAN_MOTION_DDOT,GOES,NOAA,WEATHER,COMMUNICATION,ACTIVE_GEO,GEO_PROTECTED_ZONE,GEO_PROTECTED_ZONE_PLUS,MOVERS,AMATEUR_RADIO,EUTELSAT,EXPERIMENTAL_COMM,GLOBALSTAR,HULIANWANG_DIGUI,INTELSAT,IRIDIUM_NEXT,KUIPER,ONEWEB,ORBCOMM,OTHER_COMM,QIANFAN,SATNOGS,SES,STARLINK,TELESAT,BRIGHTEST,ARGOS,DISASTER_MONITORING,EARTH_RESOURCES,PLANET,SARSAT,SPIRE,TDRSS,MISCELLANEOUS,CUBESTATS,MILITARY,OTHER,RADAR_CALIBRATION,NAVIGATION,AUGMENTATION_SYSTEM,BEIDOU,GALILEO,GLONASS_OPERATIONAL,GNSS,GPS_OPERATIONAL,NNSS,RUSSIAN_LEO_NAVIGATION,SCIENTIFIC,EDUCATION,ENGINEERING,GEODETIC,SPACE_EARTH
CZ-4B DEB,2018-081J,,,PRC,2018-10-24,2026-02-28T21:17:43.065600,14.28960571,0.0139813,98.7716,219.5775,192.9417,166.8162,0,U,56088.0,999,15026,42007-2,0.00011769,00000-0,,,,,,,,,,,,,,,,,,,,,,,,,,,,,,,,,,,,,,,,,,,,,,,,,,,
COSMOS 1729,1986-011A,,,CIS,1986-02-01,2026-02-28T21:12:46.050048,2.0044943,0.4480986,70.8554,192.6597,42.6933,342.9773,0,U,16527.0,999,29357,00000-0,7e-08,00000-0,,,,,,,,,,,,,,,,,,,,,,,,,,,,,,,,,,,,,,,,,,,,,,,,,,,
DMSP 5D-2 F13 DEB,1995-015HB,,,US,1995-03-24,2026-02-28T21:00:13.148352,14.26527133,0.0029274,98.9057,90.0524,343.5464,16.4762,0,U,42285.0,999,55241,16852-2,4.037e-05,00000-0,,,,,,,,,,,,,,,,,,,,,,,,,,,,,,,,,,,,,,,,,,,,,,,,,,,
THORAD DELTA 1 DEB,1974-089DM,,,US,1974-11-15,2026-02-28T20:52:32.694240,12.13085512,0.0278568,100.9929,199.6922,251.4128,266.3841,0,U,8785.0,999,6788,74151-2,7.56e-06,00000-0,,,,,,,,,,,,,,,,,,,,,,,,,,,,,,,,,,,,,,,,,,,,,,,,,,,
AYAME 1 DEB,1979-009D,,,JPN,1979-02-06,2026-02-28T20:43:37.169760,1.69444622,0.372704,8.4635,292.1325,169.4895,48.4557,0,U,32483.0,999,11119,00000+0,-9.1e-07,00000-0,,,,,,,,,,,,,,,,,,,,,,,,,,,,,,,,,,,,,,,,,,,,,,,,,,,
CZ-4 DEB,2004-035K,,,PRC,2004-09-08,2026-02-28T20:38:46.136544,15.09238179,0.0003023,97.5856,83.9289,116.7754,243.3784,0,U,29043.0,999,10306,21285-3,3.323e-05,00000-0,,,,,,,,,,,,,,,,,,,,,,,,,,,,,,,,,,,,,,,,,,,,,,,,,,,
SL-16 DEB,1992-093KQ,,,CIS,1992-12-25,2026-02-28T20:31:50.119680,14.03124331,0.0085462,70.8499,132.4643,100.2987,260.7777,0,U,39724.0,999,60704,28447-3,4.1e-06,00000-0,,,,,,,,,,,,,,,,,,,,,,,,,,,,,,,,,,,,,,,,,,,,,,,,,,,
NOAA 16 DEB,2000-055RF,,,US,2000-09-21,2026-02-28T20:29:52.948320,14.13746655,0.0061998,98.7983,63.4427,339.0439,20.8194,0,U,42363.0,999,51311,23731-2,4.528e-05,00000-0,,,,,,,,,,,,,,,,,,,,,,,,,,,,,,,,,,,,,,,,,,,,,,,,,,,
DELTA 1 DEB,1973-086JC,,,US,1973-11-06,2026-02-28T20:27:05.081760,12.36019337,0.0066991,102.4503,61.8032,174.3692,306.6832,0,U,42588.0,999,55380,32121-3,-6e-08,00000-0,,,,,,,,,,,,,,,,,,,,,,,,,,,,,,,,,,,,,,,,,,,,,,,,,,,
DMSP 5D-2 F13 DEB,1995-015FF,,,US,1995-03-24,2026-02-28T20:26:38.420448,14.25248635,0.0030203,98.6211,78.2665,254.2088,105.5761,0,U,40608.0,999,56393,27005-3,5.94e-06,00000-0,,,,,,,,,,,,,,,,,,,,,,,,,,,,,,,,,,,,,,,,,,,,,,,,,,,
YZ-1 R/B,2018-072D,,,PRC,2018-09-19,2026-02-28T20:23:30.561792,1.77481532,0.0106647,56.3295,74.9504,63.8561,297.2934,0,U,43625.0,999,4826,00000-0,2e-08,00000-0,,,,,,,,,,,,,,,,,,,,,,,,,,,,,,,,,,,,,,,,,,,,,,,,,,,
SL-12 DEB,1989-039F,,,CIS,1989-05-31,2026-02-28T20:21:22.256928,2.13205089,0.0018379,64.9993,314.2601,213.0158,327.8349,0,U,20044.0,999,28434,00000-0,-3.8e-07,00000-0,,,,,,,,,,,,,,,,,,,,,,,,,,,,,,,,,,,,,,,,,,,,,,,,,,,
THORAD DELTA 1 DEB,1974-089FA,,,US,1974-11-15,2026-02-28T20:05:08.775168,12.98095411,0.0216406,101.719,4.3844,334.6206,45.8258,0,U,18693.0,999,76717,-23445-2,-8.17e-06,00000-0,,,,,,,,,,,,,,,,,,,,,,,,,,,,,,,,,,,,,,,,,,,,,,,,,,,
BREEZE-M DEB,2008-011CW,,,CIS,2008-03-14,2026-02-28T19:57:20.373120,3.0536504,0.637533,48.7393,125.4441,122.1605,315.2625,0,U,38647.0,999,17141,00000-0,6.8e-07,00000-0,,,,,,,,,,,,,,,,,,,,,,,,,,,,,,,,,,,,,,,,,,,,,,,,,,,
COSMOS 1275 DEB,1981-053NZ,,,CIS,1981-06-04,2026-02-28T19:55:52.970016,13.67859785,0.0131974,83.0038,97.1321,40.7346,320.3583,0,U,39963.0,999,58437,11888-2,1.085e-05,00000-0,,,,,,,,,,,,,,,,,,,,,,,,,,,,,,,,,,,,,,,,,,,,,,,,,,,
ATLAS 5 CENTAUR DEB,2014-055CX,,,US,2014-09-17,2026-02-28T19:51:15.959520,1.84054518,0.482661,19.7598,157.631,138.9145,269.7067,0,U,46647.0,999,3618,00000-0,-6.9e-07,00000-0,,,,,,,,,,,,,,,,,,,,,,,,,,,,,,,,,,,,,,,,,,,,,,,,,,,
COSMOS 2324 (GLONASS),1995-068B,,,CIS,1995-12-14,2026-02-28T19:50:44.274048,2.13102715,0.0004703,65.4714,206.2273,97.692,262.3228,0,U,23735.0,999,23515,00000+0,6e-08,00000-0,,,,,,,,,,,,,,,,,,,,,,,,,,,,,,,,,,,,,,,,,,,,,,,,,,,
OPS 4682 DEB,1965-027DB,,,US,1965-04-03,2026-02-28T19:38:42.631008,12.97133046,0.0021889,90.2653,15.2002,44.238,316.0486,0,U,38398.0,999,64920,-65984-3,-1.83e-06,00000-0,,,,,,,,,,,,,,,,,,,,,,,,,,,,,,,,,,,,,,,,,,,,,,,,,,,
MSG 2 DEB (BAFFLE COVER),2005-049F,,,EUME,2005-12-21,2026-02-28T19:37:39.237600,1.02237518,0.0015684,12.483,28.8693,340.6389,186.5938,0,U,29676.0,999,7292,00000+0,-2.17e-06,00000-0,,,,,,,,,,,,,,,,,,,,,,,,,,,,,,,,,,,,,,,,,,,,,,,,,,,
COSMOS 2499 DEB,2014-028BV,,,CIS,2014-05-23,2026-02-28T19:36:46.376352,13.36730634,0.0271504,82.2902,249.1677,43.5796,318.6437,0,U,60609.0,999,13594,13721-1,8.785e-05,00000-0,,,,,,,,,,,,,,,,,,,,,,,,,,,,,,,,,,,,,,,,,,,,,,,,,,,
NOAA 16 DEB,2000-055QQ,,,US,2000-09-21,2026-02-28T19:36:20.791584,14.15614951,0.0055084,98.808,53.3015,231.9746,127.6448,0,U,42348.0,999,51394,16374-2,3.21e-05,00000-0,,,,,,,,,,,,,,,,,,,,,,,,,,,,,,,,,,,,,,,,,,,,,,,,,,,
SL-12 R/B(2),2007-065D,,,CIS,2007-12-25,2026-02-28T19:27:56.572416,2.13392326,0.0035503,64.3246,194.8986,189.7738,156.733,0,U,32396.0,999,14166,00000-0,-1.1e-07,00000-0,,,,,,,,,,,,,,,,,,,,,,,,,,,,,,,,,,,,,,,,,,,,,,,,,,,
PEGASUS DEB,1994-029AFJ,,,US,1994-05-19,2026-02-28T19:18:22.923936,14.724614,0.0165296,81.9836,96.0055,327.8228,31.2971,0,U,39323.0,999,72554,77271-3,6.11e-05,00000-0,,,,,,,,,,,,,,,,,,,,,,,,,,,,,,,,,,,,,,,,,,,,,,,,,,,
METEOR 2-11 DEB,1984-072E,,,CIS,1984-07-05,2026-02-28T19:17:32.356608,13.96630491,0.0002934,82.5101,97.0717,176.8177,183.3009,0,U,40703.0,999,55413,10425-2,1.458e-05,00000-0,,,,,,,,,,,,,,,,,,,,,,,,,,,,,,,,,,,,,,,,,,,,,,,,,,,
SL-8 DEB,1991-009CU,,,CIS,1991-02-12,2026-02-28T19:17:24.248832,12.10960577,0.0159568,74.1321,355.3617,327.8934,58.8402,0,U,23263.0,999,62203,-11406-2,-1.24e-06,00000-0,,,,,,,,,,,,,,,,,,,,,,,,,,,,,,,,,,,,,,,,,,,,,,,,,,,
SL-12 R/B(2),1985-118F,,,CIS,1985-12-24,2026-02-28T18:56:16.303776,2.13164746,0.0007601,66.0915,327.5507,13.0851,178.4697,0,U,16404.0,999,31298,00000-0,-6.6e-07,00000-0,,,,,,,,,,,,,,,,,,,,,,,,,,,,,,,,,,,,,,,,,,,,,,,,,,,
COSMOS 1883 (GLONASS),1987-079A,,,CIS,1987-09-16,2026-02-28T18:54:48.727007,2.13100857,0.0004545,65.6513,322.3864,250.7176,299.3465,0,U,18355.0,999,29922,00000-0,-5.6e-07,00000-0,,,,,,,,,,,,,,,,,,,,,,,,,,,,,,,,,,,,,,,,,,,,,,,,,,,
SL-12 DEB,1989-039AK,,,CIS,1989-05-31,2026-02-28T18:37:51.612384,4.29095198,0.5479263,65.2878,232.0076,102.5014,1.8849,0,U,29328.0,999,30630,91490-3,7e-07,00000-0,,,,,,,,,,,,,,,,,,,,,,,,,,,,,,,,,,,,,,,,,,,,,,,,,,,
SL-12 DEB,1985-118P,,,CIS,1985-12-24,2026-02-28T18:30:30.495456,4.5217851,0.5524259,65.3445,350.5621,296.0066,18.073,0,U,23292.0,999,53560,62147-3,1.74e-06,00000-0,,,,,,,,,,,,,,,,,,,,,,,,,,,,,,,,,,,,,,,,,,,,,,,,,,,
THORAD DELTA 1 DEB,1974-089AR,,,US,1974-11-15,2026-02-28T18:28:33.520224,12.67196437,0.0180524,102.6217,354.0872,237.5461,183.2413,0,U,8175.0,999,31574,19374-1,3.899e-05,00000-0,,,,,,,,,,,,,,,,,,,,,,,,,,,,,,,,,,,,,,,,,,,,,,,,,,,
NAVSTAR 44 (USA 135),1997-067A,,,US,1997-11-06,2026-02-28T18:27:54.806976,1.88437587,0.0020238,55.5962,177.1699,259.0769,91.6419,0,U,25030.0,999,20464,00000-0,-3.4e-07,00000-0,,,,,,,,,,,,,,,,,,,,,,,,,,,,,,,,,,,,,,,,,,,,,,,,,,,
FREGAT R/B,2011-009B,,,CIS,2011-02-26,2026-02-28T18:16:35.176799,2.08582253,0.0069372,65.7526,327.0188,87.3225,98.0207,0,U,37373.0,999,11430,00000-0,-6.6e-07,00000-0,,,,,,,,,,,,,,,,,,,,,,,,,,,,,,,,,,,,,,,,,,,,,,,,,,,
SHIYAN 20A DEB,2022-169E,,,PRC,2022-12-12,2026-02-28T17:55:07.032288,14.32725647,0.0018591,59.9938,228.9746,114.8673,245.4299,0,U,55716.0,999,15743,40603-3,9.74e-06,00000-0,,,,,,,,,,,,,,,,,,,,,,,,,,,,,,,,,,,,,,,,,,,,,,,,,,,
TITAN 3C TRANSTAGE DEB,1965-108AJ,,,US,1965-12-21,2026-02-28T17:47:43.179072,2.69796818,0.6624894,26.4083,271.8678,197.0069,120.5331,0,U,26050.0,999,26329,17450-1,2.42e-06,00000-0,,,,,,,,,,,,,,,,,,,,,,,,,,,,,,,,,,,,,,,,,,,,,,,,,,,
CZ-4 DEB,1990-081CV,,,PRC,1990-09-03,2026-02-28T17:42:49.978080,14.09051219,0.0067169,98.9124,41.7988,37.6264,141.1036,0,U,37609.0,999,13739,20068-3,3.11e-06,00000-0,,,,,,,,,,,,,,,,,,,,,,,,,,,,,,,,,,,,,,,,,,,,,,,,,,,
COSMOS 2499 DEB,2014-028BY,,,CIS,2014-05-23,2026-02-28T17:42:05.050944,13.26370627,0.0275808,82.1562,241.0379,67.3696,295.635,0,U,60612.0,999,14946,10190-1,5.547e-05,00000-0,,,,,,,,,,,,,,,,,,,,,,,,,,,,,,,,,,,,,,,,,,,,,,,,,,,
MIDAS 5 DEB,1962-010G,,,US,1962-04-09,2026-02-28T17:38:53.353536,9.41008241,0.0284967,86.6982,341.8205,195.0113,189.1752,0,U,18603.0,999,36834,-31825-2,-1.2e-07,00000-0,,,,,,,,,,,,,,,,,,,,,,,,,,,,,,,,,,,,,,,,,,,,,,,,,,,
CZ-4 DEB,1990-081DD,,,PRC,1990-09-03,2026-02-28T17:36:08.517888,14.04365211,0.0008453,98.9686,39.7478,190.3791,348.388,0,U,37617.0,999,62242,-25121-4,-8.4e-07,00000-0,,,,,,,,,,,,,,,,,,,,,,,,,,,,,,,,,,,,,,,,,,,,,,,,,,,
COSMOS 2491 DEB,2013-076AU,,,CIS,2013-12-25,2026-02-28T17:32:06.965088,12.468847,0.010854,82.473,234.8579,265.934,92.933,0,U,57557.0,999,12766,78433-2,1.178e-05,00000-0,,,,,,,,,,,,,,,,,,,,,,,,,,,,,,,,,,,,,,,,,,,,,,,,,,,
COSMOS 2232,1993-006A,,,CIS,1993-01-26,2026-02-28T17:29:27.326399,2.0037893,0.5468334,67.2394,190.0175,127.8015,295.5342,0,U,22321.0,999,24222,00000-0,-5.55e-06,00000-0,,,,,,,,,,,,,,,,,,,,,,,,,,,,,,,,,,,,,,,,,,,,,,,,,,,
COSMOS 2491 DEB,2013-076AX,,,CIS,2013-12-25,2026-02-28T17:28:38.982144,12.5506262,0.0086985,82.4852,223.3556,212.1141,147.463,0,U,57560.0,999,12858,14501-1,2.399e-05,00000-0,,,,,,,,,,,,,,,,,,,,,,,,,,,,,,,,,,,,,,,,,,,,,,,,,,,
